[{"OBJECT_NAME":"STARLINK-1724","OBJECT_ID":"2020-062BC","EPOCH":"2026-03-09T21:09:06.323616","MEAN_MOTION":15.52994502,"ECCENTRICITY":6.461e-5,"INCLINATION":53.03,"RA_OF_ASC_NODE":286.312,"ARG_OF_PERICENTER":290.0193,"MEAN_ANOMALY":70.0747,"EPHEMERIS_TYPE":0,"CLASSIFICATION_TYPE":"U","NORAD_CAT_ID":46375,"ELEMENT_SET_NO":999,"REV_AT_EPOCH":30559,"BSTAR":0.0019221523,"MEAN_MOTION_DOT":0.00123399,"MEAN_MOTION_DDOT":0},{"OBJECT_NAME":"ZK-1A R\/B","OBJECT_ID":"2025-108G","EPOCH":"2026-03-09T22:10:12.431136","MEAN_MOTION":15.50420851,"ECCENTRICITY":0.00781774,"INCLINATION":97.4327,"RA_OF_ASC_NODE":155.8294,"ARG_OF_PERICENTER":43.1375,"MEAN_ANOMALY":317.5966,"EPHEMERIS_TYPE":0,"CLASSIFICATION_TYPE":"U","NORAD_CAT_ID":64093,"ELEMENT_SET_NO":999,"REV_AT_EPOCH":4506,"BSTAR":0.00053431437,"MEAN_MOTION_DOT":0.00034492,"MEAN_MOTION_DDOT":0}]
